[{"OBJECT_NAME":"STARLINK-34955","OBJECT_ID":"2025-175U","EPOCH":"2025-10-14T05:16:11.971200","MEAN_MOTION":15.05652749,"ECCENTRICITY":0.00021896,"INCLINATION":97.6018,"RA_OF_ASC_NODE":158.3241,"ARG_OF_PERICENTER":98.4618,"MEAN_ANOMALY":261.6857,"EPHEMERIS_TYPE":0,"CLASSIFICATION_TYPE":"U","NORAD_CAT_ID":65192,"ELEMENT_SET_NO":999,"REV_AT_EPOCH":1057,"BSTAR":0.00053840284,"MEAN_MOTION_DOT":7.717e-5,"MEAN_MOTION_DDOT":0},{"OBJECT_NAME":"STARLINK-34950","OBJECT_ID":"2025-175V","EPOCH":"2025-10-14T05:12:14.528448","MEAN_MOTION":15.0565767,"ECCENTRICITY":0.00016814,"INCLINATION":97.602,"RA_OF_ASC_NODE":158.3295,"ARG_OF_PERICENTER":91.1235,"MEAN_ANOMALY":269.0185,"EPHEMERIS_TYPE":0,"CLASSIFICATION_TYPE":"U","NORAD_CAT_ID":65193,"ELEMENT_SET_NO":999,"REV_AT_EPOCH":1057,"BSTAR":0.00065535629,"MEAN_MOTION_DOT":9.41e-5,"MEAN_MOTION_DDOT":0},{"OBJECT_NAME":"STARLINK-34926","OBJECT_ID":"2025-175W","EPOCH":"2025-10-14T04:56:15.928224","MEAN_MOTION":15.05645363,"ECCENTRICITY":0.00021816,"INCLINATION":97.6027,"RA_OF_ASC_NODE":158.3441,"ARG_OF_PERICENTER":98.7676,"MEAN_ANOMALY":261.3798,"EPHEMERIS_TYPE":0,"CLASSIFICATION_TYPE":"U","NORAD_CAT_ID":65194,"ELEMENT_SET_NO":999,"REV_AT_EPOCH":1057,"BSTAR":0.00041510346,"MEAN_MOTION_DOT":5.933e-5,"MEAN_MOTION_DDOT":0},{"OBJECT_NAME":"STARLINK-34928","OBJECT_ID":"2025-175X","EPOCH":"2025-10-14T05:00:17.321184","MEAN_MOTION":15.05638199,"ECCENTRICITY":0.000266,"INCLINATION":97.6027,"RA_OF_ASC_NODE":158.34,"ARG_OF_PERICENTER":92.5559,"MEAN_ANOMALY":267.5973,"EPHEMERIS_TYPE":0,"CLASSIFICATION_TYPE":"U","NORAD_CAT_ID":65195,"ELEMENT_SET_NO":999,"REV_AT_EPOCH":1060,"BSTAR":0.00071419069,"MEAN_MOTION_DOT":0.00010256,"MEAN_MOTION_DDOT":0},{"OBJECT_NAME":"STARLINK-34927","OBJECT_ID":"2025-175Y","EPOCH":"2025-10-14T05:08:14.297568","MEAN_MOTION":15.05652657,"ECCENTRICITY":0.00022991,"INCLINATION":97.6028,"RA_OF_ASC_NODE":158.3335,"ARG_OF_PERICENTER":87.7062,"MEAN_ANOMALY":272.4428,"EPHEMERIS_TYPE":0,"CLASSIFICATION_TYPE":"U","NORAD_CAT_ID":65196,"ELEMENT_SET_NO":999,"REV_AT_EPOCH":1060,"BSTAR":-0.00015795838,"MEAN_MOTION_DOT":-2.34e-5,"MEAN_MOTION_DDOT":0},{"OBJECT_NAME":"STARLINK-34952","OBJECT_ID":"2025-175Z","EPOCH":"2025-10-14T05:04:14.297376","MEAN_MOTION":15.05650356,"ECCENTRICITY":0.00017546,"INCLINATION":97.6017,"RA_OF_ASC_NODE":158.3354,"ARG_OF_PERICENTER":97.0841,"MEAN_ANOMALY":263.0585,"EPHEMERIS_TYPE":0,"CLASSIFICATION_TYPE":"U","NORAD_CAT_ID":65197,"ELEMENT_SET_NO":999,"REV_AT_EPOCH":1060,"BSTAR":0.00042991028,"MEAN_MOTION_DOT":6.148e-5,"MEAN_MOTION_DDOT":0},{"OBJECT_NAME":"STARLINK-34981","OBJECT_ID":"2025-176A","EPOCH":"2025-10-14T00:24:04.191552","MEAN_MOTION":15.30208562,"ECCENTRICITY":0.00011068,"INCLINATION":53.1572,"RA_OF_ASC_NODE":116.881,"ARG_OF_PERICENTER":94.0506,"MEAN_ANOMALY":266.0621,"EPHEMERIS_TYPE":0,"CLASSIFICATION_TYPE":"U","NORAD_CAT_ID":65198,"ELEMENT_SET_NO":999,"REV_AT_EPOCH":1062,"BSTAR":0.00095121666,"MEAN_MOTION_DOT":0.00027927,"MEAN_MOTION_DDOT":0},{"OBJECT_NAME":"STARLINK-34821","OBJECT_ID":"2025-176B","EPOCH":"2025-10-14T00:26:34.344384","MEAN_MOTION":15.39629496,"ECCENTRICITY":9.991e-5,"INCLINATION":53.158,"RA_OF_ASC_NODE":115.4816,"ARG_OF_PERICENTER":81.2536,"MEAN_ANOMALY":278.8582,"EPHEMERIS_TYPE":0,"CLASSIFICATION_TYPE":"U","NORAD_CAT_ID":65199,"ELEMENT_SET_NO":999,"REV_AT_EPOCH":1058,"BSTAR":0.0012993542,"MEAN_MOTION_DOT":0.00051944,"MEAN_MOTION_DDOT":0},{"OBJECT_NAME":"STARLINK-34865","OBJECT_ID":"2025-176C","EPOCH":"2025-10-14T05:53:47.833728","MEAN_MOTION":15.39630462,"ECCENTRICITY":0.00014887,"INCLINATION":53.1594,"RA_OF_ASC_NODE":114.7703,"ARG_OF_PERICENTER":80.361,"MEAN_ANOMALY":279.7563,"EPHEMERIS_TYPE":0,"CLASSIFICATION_TYPE":"U","NORAD_CAT_ID":65200,"ELEMENT_SET_NO":999,"REV_AT_EPOCH":1067,"BSTAR":0.0017970196,"MEAN_MOTION_DOT":0.00072188,"MEAN_MOTION_DDOT":0},{"OBJECT_NAME":"STARLINK-34843","OBJECT_ID":"2025-176D","EPOCH":"2025-10-14T00:06:00.428832","MEAN_MOTION":15.39623946,"ECCENTRICITY":0.00011197,"INCLINATION":53.1589,"RA_OF_ASC_NODE":115.3902,"ARG_OF_PERICENTER":77.4815,"MEAN_ANOMALY":282.6315,"EPHEMERIS_TYPE":0,"CLASSIFICATION_TYPE":"U","NORAD_CAT_ID":65201,"ELEMENT_SET_NO":999,"REV_AT_EPOCH":1064,"BSTAR":0.0012851068,"MEAN_MOTION_DOT":0.00051357,"MEAN_MOTION_DDOT":0},{"OBJECT_NAME":"STARLINK-34905","OBJECT_ID":"2025-176E","EPOCH":"2025-10-14T05:33:15.168384","MEAN_MOTION":15.39626805,"ECCENTRICITY":0.00012052,"INCLINATION":53.1582,"RA_OF_ASC_NODE":114.6802,"ARG_OF_PERICENTER":77.8509,"MEAN_ANOMALY":282.2631,"EPHEMERIS_TYPE":0,"CLASSIFICATION_TYPE":"U","NORAD_CAT_ID":65202,"ELEMENT_SET_NO":999,"REV_AT_EPOCH":1067,"BSTAR":0.00097762024,"MEAN_MOTION_DOT":0.00038913,"MEAN_MOTION_DDOT":0},{"OBJECT_NAME":"STARLINK-34914","OBJECT_ID":"2025-176F","EPOCH":"2025-10-14T05:20:21.633504","MEAN_MOTION":15.39642195,"ECCENTRICITY":0.00014018,"INCLINATION":53.1587,"RA_OF_ASC_NODE":114.6206,"ARG_OF_PERICENTER":82.9638,"MEAN_ANOMALY":277.1526,"EPHEMERIS_TYPE":0,"CLASSIFICATION_TYPE":"U","NORAD_CAT_ID":65203,"ELEMENT_SET_NO":999,"REV_AT_EPOCH":1067,"BSTAR":0.0011635116,"MEAN_MOTION_DOT":0.00046458,"MEAN_MOTION_DDOT":0},{"OBJECT_NAME":"STARLINK-34787","OBJECT_ID":"2025-176G","EPOCH":"2025-10-14T06:07:01.870464","MEAN_MOTION":15.39646833,"ECCENTRICITY":0.00016629,"INCLINATION":53.1595,"RA_OF_ASC_NODE":114.1101,"ARG_OF_PERICENTER":89.9631,"MEAN_ANOMALY":270.1565,"EPHEMERIS_TYPE":0,"CLASSIFICATION_TYPE":"U","NORAD_CAT_ID":65204,"ELEMENT_SET_NO":999,"REV_AT_EPOCH":1068,"BSTAR":0.0013348051,"MEAN_MOTION_DOT":0.00053414,"MEAN_MOTION_DDOT":0},{"OBJECT_NAME":"STARLINK-34796","OBJECT_ID":"2025-176H","EPOCH":"2025-10-14T05:13:40.268352","MEAN_MOTION":15.39650552,"ECCENTRICITY":9.348e-5,"INCLINATION":53.1581,"RA_OF_ASC_NODE":114.5918,"ARG_OF_PERICENTER":84.0653,"MEAN_ANOMALY":276.0459,"EPHEMERIS_TYPE":0,"CLASSIFICATION_TYPE":"U","NORAD_CAT_ID":65205,"ELEMENT_SET_NO":999,"REV_AT_EPOCH":1067,"BSTAR":0.0012411628,"MEAN_MOTION_DOT":0.00049619,"MEAN_MOTION_DDOT":0},{"OBJECT_NAME":"STARLINK-34763","OBJECT_ID":"2025-176J","EPOCH":"2025-10-14T00:19:52.208544","MEAN_MOTION":15.39666966,"ECCENTRICITY":9.619e-5,"INCLINATION":53.1582,"RA_OF_ASC_NODE":115.4507,"ARG_OF_PERICENTER":68.5508,"MEAN_ANOMALY":291.5599,"EPHEMERIS_TYPE":0,"CLASSIFICATION_TYPE":"U","NORAD_CAT_ID":65206,"ELEMENT_SET_NO":999,"REV_AT_EPOCH":1064,"BSTAR":0.001690463,"MEAN_MOTION_DOT":0.00067927,"MEAN_MOTION_DDOT":0},{"OBJECT_NAME":"STARLINK-34901","OBJECT_ID":"2025-176K","EPOCH":"2025-10-14T00:13:10.755264","MEAN_MOTION":15.39630732,"ECCENTRICITY":0.00012832,"INCLINATION":53.1582,"RA_OF_ASC_NODE":115.4213,"ARG_OF_PERICENTER":61.9908,"MEAN_ANOMALY":298.1227,"EPHEMERIS_TYPE":0,"CLASSIFICATION_TYPE":"U","NORAD_CAT_ID":65207,"ELEMENT_SET_NO":999,"REV_AT_EPOCH":1064,"BSTAR":0.0018621626,"MEAN_MOTION_DOT":0.00074846,"MEAN_MOTION_DDOT":0}]
