STARLINK-34955          
1 65192U 25175U   25287.21958300  .00007717  00000+0  53840-3 0  9999
2 65192  97.6018 158.3241 0002189  98.4618 261.6857 15.05652749 10578
STARLINK-34950          
1 65193U 25175V   25287.21683482  .00009410  00000+0  65536-3 0  9993
2 65193  97.6020 158.3295 0001681  91.1235 269.0185 15.05657670 10576
STARLINK-34926          
1 65194U 25175W   25287.20573991  .00005933  00000+0  41510-3 0  9998
2 65194  97.6027 158.3441 0002181  98.7676 261.3798 15.05645363 10576
STARLINK-34928          
1 65195U 25175X   25287.20853381  .00010256  00000+0  71419-3 0  9998
2 65195  97.6027 158.3400 0002660  92.5559 267.5973 15.05638199 10602
STARLINK-34927          
1 65196U 25175Y   25287.21405437 -.00002340  00000+0 -15796-3 0  9998
2 65196  97.6028 158.3335 0002299  87.7062 272.4428 15.05652657 10609
STARLINK-34952          
1 65197U 25175Z   25287.21127659  .00006148  00000+0  42991-3 0  9991
2 65197  97.6017 158.3354 0001754  97.0841 263.0585 15.05650356 10607
STARLINK-34981          
1 65198U 25176A   25287.01671518  .00027927  00000+0  95122-3 0  9991
2 65198  53.1572 116.8810 0001106  94.0506 266.0621 15.30208562 10625
STARLINK-34821          
1 65199U 25176B   25287.01845306  .00051944  00000+0  12994-2 0  9991
2 65199  53.1580 115.4816 0000999  81.2536 278.8582 15.39629496 10580
STARLINK-34865          
1 65200U 25176C   25287.24569252  .00072188  00000+0  17970-2 0  9994
2 65200  53.1594 114.7703 0001488  80.3610 279.7563 15.39630462 10676
STARLINK-34843          
1 65201U 25176D   25287.00417163  .00051357  00000+0  12851-2 0  9990
2 65201  53.1589 115.3902 0001119  77.4815 282.6315 15.39623946 10648
STARLINK-34905          
1 65202U 25176E   25287.23142556  .00038913  00000+0  97762-3 0  9995
2 65202  53.1582 114.6802 0001205  77.8509 282.2631 15.39626805 10670
STARLINK-34914          
1 65203U 25176F   25287.22247261  .00046458  00000+0  11635-2 0  9991
2 65203  53.1587 114.6206 0001401  82.9638 277.1526 15.39642195 10678
STARLINK-34787          
1 65204U 25176G   25287.25488276  .00053414  00000+0  13348-2 0  9991
2 65204  53.1595 114.1101 0001662  89.9631 270.1565 15.39646833 10686
STARLINK-34796          
1 65205U 25176H   25287.21782718  .00049619  00000+0  12412-2 0  9999
2 65205  53.1581 114.5918 0000934  84.0653 276.0459 15.39650552 10672
STARLINK-34763          
1 65206U 25176J   25287.01379871  .00067927  00000+0  16905-2 0  9993
2 65206  53.1582 115.4507 0000961  68.5508 291.5599 15.39666966 10644
STARLINK-34901          
1 65207U 25176K   25287.00915226  .00074846  00000+0  18622-2 0  9999
2 65207  53.1582 115.4213 0001283  61.9908 298.1227 15.39630732 10641
